[{"OBJECT_NAME":"STARLINK-31663","OBJECT_ID":"2024-076N","EPOCH":"2026-03-09T04:38:08.750976","MEAN_MOTION":15.27564134,"ECCENTRICITY":0.0001489,"INCLINATION":43.0028,"RA_OF_ASC_NODE":12.0711,"ARG_OF_PERICENTER":274.3528,"MEAN_ANOMALY":85.7154,"EPHEMERIS_TYPE":0,"CLASSIFICATION_TYPE":"U","NORAD_CAT_ID":59576,"ELEMENT_SET_NO":999,"REV_AT_EPOCH":10642,"BSTAR":-6.0810028e-5,"MEAN_MOTION_DOT":-1.934e-5,"MEAN_MOTION_DDOT":0},{"OBJECT_NAME":"NUSAT-48 (HENRIETTA LEAVITT)","OBJECT_ID":"2024-149AG","EPOCH":"2026-03-09T19:19:17.269536","MEAN_MOTION":15.29812597,"ECCENTRICITY":0.00027538,"INCLINATION":97.3923,"RA_OF_ASC_NODE":150.8264,"ARG_OF_PERICENTER":263.3026,"MEAN_ANOMALY":96.7901,"EPHEMERIS_TYPE":0,"CLASSIFICATION_TYPE":"U","NORAD_CAT_ID":60498,"ELEMENT_SET_NO":999,"REV_AT_EPOCH":8694,"BSTAR":0.00045211745,"MEAN_MOTION_DOT":0.00012988,"MEAN_MOTION_DDOT":0}]
