STARLINK-31663          
1 59576U 24076N   26068.19315684 -.00001934  00000+0 -60810-4 0  9997
2 59576  43.0028  12.0711 0001489 274.3528  85.7154 15.27564134106427
NUSAT-48 (HENRIETTA LE*)
1 60498U 24149AG  26068.80506098  .00012988  00000+0  45212-3 0  9999
2 60498  97.3923 150.8264 0002754 263.3026  96.7901 15.29812597 86946
